[{"OBJECT_NAME":"STARLINK-35112","OBJECT_ID":"2025-200A","EPOCH":"2026-03-09T17:34:34.600224","MEAN_MOTION":15.05693612,"ECCENTRICITY":0.00035008,"INCLINATION":97.6036,"RA_OF_ASC_NODE":139.7855,"ARG_OF_PERICENTER":25.4618,"MEAN_ANOMALY":334.678,"EPHEMERIS_TYPE":0,"CLASSIFICATION_TYPE":"U","NORAD_CAT_ID":65520,"ELEMENT_SET_NO":999,"REV_AT_EPOCH":2913,"BSTAR":0.0019596167,"MEAN_MOTION_DOT":0.00028363,"MEAN_MOTION_DDOT":0},{"OBJECT_NAME":"OBJECT H","OBJECT_ID":"2025-292H","EPOCH":"2026-03-09T22:24:53.558208","MEAN_MOTION":15.06373042,"ECCENTRICITY":0.00142604,"INCLINATION":97.6442,"RA_OF_ASC_NODE":145.7846,"ARG_OF_PERICENTER":348.9217,"MEAN_ANOMALY":11.1694,"EPHEMERIS_TYPE":0,"CLASSIFICATION_TYPE":"U","NORAD_CAT_ID":67000,"ELEMENT_SET_NO":999,"REV_AT_EPOCH":1338,"BSTAR":0.0005462937,"MEAN_MOTION_DOT":8.001e-5,"MEAN_MOTION_DDOT":0}]
